NORAD_CAT_ID,OBJECT_NAME,OBJECT_TYPE,EPOCH,MEAN_MOTION,ECCENTRICITY,INCLINATION,RA_OF_ASC_NODE,ARG_OF_PERICENTER,MEAN_ANOMALY,BSTAR,MEAN_MOTION_DOT,MEAN_MOTION_DDOT,TLE_LINE0,TLE_LINE1,TLE_LINE2,SEMIMAJOR_AXIS,PERIOD,APOGEE,PERIGEE,DECAYED
53004.0,STARLINK-4253,PAYLOAD,2023-09-19 02:11:13,15.08847987,0.0001166,53.2163,186.0448,97.351,262.7614,5.6761e-05,6.16e-06,0.0,0 STARLINK-4253,1 53004U 22076U   23262.09112300  .00000616  00000-0  56761-4 0  9992,2 53004  53.2163 186.0448 0001166  97.3510 262.7614 15.08847987 67057,6917.856,95.437,540.528,538.914,0.0
53004.0,STARLINK-4253,PAYLOAD,2023-09-20 05:12:46,15.08844356,0.0001383,53.2178,180.9868,93.568,266.547,2.7824e-05,1.55e-06,0.0,0 STARLINK-4253,1 53004U 22076U   23263.21720786  .00000155  00000-0  27824-4 0  9996,2 53004  53.2178 180.9868 0001383  93.5680 266.5470 15.08844356 67227,6917.867,95.437,540.689,538.775,0.0
53004.0,STARLINK-4253,PAYLOAD,2023-09-20 11:34:19,15.08838486,0.0001443,53.2182,179.7966,87.5989,272.5169,-1.181e-05,-4.76e-06,0.0,0 STARLINK-4253,1 53004U 22076U   23263.48217337 -.00000476  00000-0 -11810-4 0  9994,2 53004  53.2182 179.7966 0001443  87.5989 272.5169 15.08838486 67262,6917.885,95.438,540.748,538.752,0.0
53004.0,STARLINK-4253,PAYLOAD,2023-09-21 01:52:49,15.08830304,0.0001406,53.2175,177.1228,90.0349,270.0804,-0.00011924,-2.185e-05,0.0,0 STARLINK-4253,1 53004U 22076U   23264.07834678 -.00002185  00000-0 -11924-3 0  9997,2 53004  53.2175 177.1228 0001406  90.0349 270.0804 15.08830304 67355,6917.91,95.438,540.748,538.802,0.0
53004.0,STARLINK-4253,PAYLOAD,2023-09-21 05:03:35,15.08834181,0.0001392,53.2175,176.5273,88.4856,271.6296,-8.6099e-05,-1.658e-05,0.0,0 STARLINK-4253,1 53004U 22076U   23264.21082411 -.00001658  00000-0 -86099-4 0  9993,2 53004  53.2175 176.5273 0001392  88.4856 271.6296 15.08834181 66905,6917.898,95.438,540.726,538.8,0.0
53004.0,STARLINK-4253,PAYLOAD,2023-09-22 03:18:58,15.08848645,0.0001372,53.2162,172.3649,103.6718,256.4427,0.00029951,4.483e-05,0.0,0 STARLINK-4253,1 53004U 22076U   23265.13817738  .00004483  00000-0  29951-3 0  9993,2 53004  53.2162 172.3649 0001372 103.6718 256.4427 15.08848645 67512,6917.854,95.437,540.668,538.77,0.0
53004.0,STARLINK-4253,PAYLOAD,2023-09-22 23:58:59,15.08845824,0.0001338,53.2165,168.499,94.0441,266.0704,0.00034507,5.209e-05,0.0,0 STARLINK-4253,1 53004U 22076U   23265.99929848  .00005209  00000-0  34507-3 0  9993,2 53004  53.2165 168.4990 0001338  94.0441 266.0704 15.08845824 67643,6917.863,95.437,540.653,538.802,0.0
53004.0,STARLINK-4253,PAYLOAD,2023-09-24 03:00:32,15.08850147,0.0001379,53.2166,163.4426,91.7216,268.3934,1.8303e-05,3e-08,0.0,0 STARLINK-4253,1 53004U 22076U   23267.12537285  .00000003  00000-0  18303-4 0  9994,2 53004  53.2166 163.4426 0001379  91.7216 268.3934 15.08850147 67815,6917.849,95.437,540.668,538.76,0.0
53004.0,STARLINK-4253,PAYLOAD,2023-09-24 20:29:47,15.08831551,0.0001566,53.2172,160.1699,101.6995,258.4173,0.00012591,1.716e-05,0.0,0 STARLINK-4253,1 53004U 22076U   23267.85402221  .00001716  00000-0  12591-3 0  9999,2 53004  53.2172 160.1699 0001566 101.6995 258.4173 15.08831551 67926,6917.906,95.438,540.855,538.688,0.0
53004.0,STARLINK-4253,PAYLOAD,2023-09-24 22:05:10,15.08829499,0.0001664,53.217,159.8719,106.7202,253.3972,0.00026766,3.973e-05,0.0,0 STARLINK-4253,1 53004U 22076U   23267.92026432  .00003973  00000-0  26766-3 0  9999,2 53004  53.2170 159.8719 0001664 106.7202 253.3972 15.08829499 67466,6917.912,95.438,540.929,538.626,0.0
53004.0,STARLINK-4253,PAYLOAD,2023-09-25 02:51:19,15.08843456,0.0001568,53.2166,158.9794,106.5168,253.5997,5.3269e-05,5.6e-06,0.0,0 STARLINK-4253,1 53004U 22076U   23268.11897594  .00000560  00000-0  53269-4 0  9994,2 53004  53.2166 158.9794 0001568 106.5168 253.5997 15.08843456 67969,6917.87,95.437,540.82,538.65,0.0
53004.0,STARLINK-4253,PAYLOAD,2023-09-25 21:55:56,15.08851294,0.0001468,53.2163,155.4112,108.35,251.7652,0.00018626,2.678e-05,0.0,0 STARLINK-4253,1 53004U 22076U   23268.91385035  .00002678  00000-0  18626-3 0  9993,2 53004  53.2163 155.4112 0001468 108.3500 251.7652 15.08851294 67610,6917.846,95.437,540.726,538.695,0.0
53004.0,STARLINK-4253,PAYLOAD,2023-09-25 23:31:19,15.08855485,0.0001449,53.2168,155.1139,102.5607,257.5547,0.0003102,4.654e-05,0.0,0 STARLINK-4253,1 53004U 22076U   23268.98008848  .00004654  00000-0  31020-3 0  9993,2 53004  53.2168 155.1139 0001449 102.5607 257.5547 15.08855485 68090,6917.833,95.437,540.7,538.696,0.0
53004.0,STARLINK-4253,PAYLOAD,2023-09-26 20:11:21,15.08832837,0.0001365,53.2161,151.2501,98.588,261.5267,-0.00010488,-1.956e-05,0.0,0 STARLINK-4253,1 53004U 22076U   23269.84122070 -.00001956  00000-0 -10488-3 0  9992,2 53004  53.2161 151.2501 0001365  98.5880 261.5267 15.08832837 68222,6917.902,95.438,540.712,538.823,0.0
53004.0,STARLINK-4253,PAYLOAD,2023-09-27 08:54:26,15.08833206,0.000141,53.2166,148.8714,93.4123,266.703,-3.117e-05,-7.84e-06,0.0,0 STARLINK-4253,1 53004U 22076U   23270.37114350 -.00000784  00000-0 -31170-4 0  9994,2 53004  53.2166 148.8714 0001410  93.4123 266.7030 15.08833206 67832,6917.901,95.438,540.742,538.791,0.0
53004.0,STARLINK-4253,PAYLOAD,2023-09-28 00:48:18,15.0883159,0.0001671,53.2171,145.9055,116.7645,243.3518,-0.0001156,-2.127e-05,0.0,0 STARLINK-4253,1 53004U 22076U   23271.03355074 -.00002127  00000-0 -11560-3 0  9991,2 53004  53.2171 145.9055 0001671 116.7645 243.3518 15.08831590 68401,6917.906,95.438,540.927,538.615,0.0
53004.0,STARLINK-4253,PAYLOAD,2023-09-28 21:28:19,15.08848925,0.0001275,53.2152,142.0358,103.3559,256.7575,0.00035021,5.291e-05,0.0,0 STARLINK-4253,1 53004U 22076U   23271.89466548  .00005291  00000-0  35021-3 0  9995,2 53004  53.2152 142.0358 0001275 103.3559 256.7575 15.08848925 68063,6917.853,95.437,540.6,538.836,0.0
53004.0,STARLINK-4253,PAYLOAD,2023-09-29 02:14:28,15.08857697,0.0001333,53.2157,141.1412,100.9145,259.1997,0.00056437,8.71e-05,0.0,0 STARLINK-4253,1 53004U 22076U   23272.09338350  .00008710  00000-0  56437-3 0  9990,2 53004  53.2157 141.1412 0001333 100.9145 259.1997 15.08857697 68564,6917.826,95.436,540.613,538.769,0.0
53004.0,STARLINK-4253,PAYLOAD,2023-09-29 19:43:42,15.08850301,0.0001305,53.2158,137.8663,115.2574,244.8554,0.00018186,2.608e-05,0.0,0 STARLINK-4253,1 53004U 22076U   23272.82202178  .00002608  00000-0  18186-3 0  9998,2 53004  53.2158 137.8663 0001305 115.2574 244.8554 15.08850301 68676,6917.849,95.437,540.617,538.811,0.0
53004.0,STARLINK-4253,PAYLOAD,2023-09-30 08:26:48,15.0884433,0.0001374,53.2162,135.4893,87.0973,273.0176,8.6034e-05,1.082e-05,0.0,0 STARLINK-4253,1 53004U 22076U   23273.35194509  .00001082  00000-0  86034-4 0  9998,2 53004  53.2162 135.4893 0001374  87.0973 273.0176 15.08844330 68753,6917.867,95.437,540.683,538.782,0.0
53004.0,STARLINK-4253,PAYLOAD,2023-10-01 08:17:34,15.08846672,0.000144,53.2152,131.0299,91.1331,268.9827,5.5541e-05,5.96e-06,0.0,0 STARLINK-4253,1 53004U 22076U   23274.34554309  .00000596  00000-0  55541-4 0  9994,2 53004  53.2152 131.0299 0001440  91.1331 268.9827 15.08846672 68434,6917.86,95.437,540.721,538.729,0.0
53004.0,STARLINK-4253,PAYLOAD,2023-10-01 19:25:16,15.08852936,0.0001395,53.2145,128.9491,83.8165,276.2986,0.00031142,4.674e-05,0.0,0 STARLINK-4253,1 53004U 22076U   23274.80922168  .00004674  00000-0  31142-3 0  9998,2 53004  53.2145 128.9491 0001395  83.8165 276.2986 15.08852936 68974,6917.841,95.437,540.671,538.741,0.0
53004.0,STARLINK-4253,PAYLOAD,2023-10-01 21:00:39,15.08858259,0.0001394,53.2149,128.6505,89.6639,270.4513,0.00042751,6.526e-05,0.0,0 STARLINK-4253,1 53004U 22076U   23274.87545975  .00006526  00000-0  42751-3 0  9998,2 53004  53.2149 128.6505 0001394  89.6639 270.4513 15.08858259 68516,6917.825,95.436,540.654,538.725,0.0
53004.0,STARLINK-4253,PAYLOAD,2023-10-02 20:51:27,15.08843397,0.0001378,53.2154,124.1893,88.6617,271.4533,7.4569e-05,8.99e-06,0.0,0 STARLINK-4253,1 53004U 22076U   23275.86906339  .00000899  00000-0  74569-4 0  9993,2 53004  53.2154 124.1893 0001378  88.6617 271.4533 15.08843397 69139,6917.87,95.437,540.688,538.782,0.0
53004.0,STARLINK-4253,PAYLOAD,2023-10-03 06:23:45,15.08842246,0.0001317,53.2154,122.4052,89.1425,270.9718,8.4435e-05,1.056e-05,0.0,0 STARLINK-4253,1 53004U 22076U   23276.26650397  .00001056  00000-0  84435-4 0  9997,2 53004  53.2154 122.4052 0001317  89.1425 270.9718 15.08842246 68728,6917.874,95.437,540.65,538.827,0.0
53004.0,STARLINK-4253,PAYLOAD,2023-10-03 20:42:14,15.08837843,0.0001379,53.2152,119.7301,92.037,268.078,-2.0882e-05,-6.2e-06,0.0,0 STARLINK-4253,1 53004U 22076U   23276.86266709 -.00000620  00000-0 -20882-4 0  9997,2 53004  53.2152 119.7301 0001379  92.0370 268.0780 15.08837843 69288,6917.887,95.438,540.706,538.798,0.0
53004.0,STARLINK-4253,PAYLOAD,2023-10-03 23:53:00,15.08838767,0.0001388,53.2154,119.1348,91.6204,268.4947,2.6494e-05,1.34e-06,0.0,0 STARLINK-4253,1 53004U 22076U   23276.99514711  .00000134  00000-0  26494-4 0  9993,2 53004  53.2154 119.1348 0001388  91.6204 268.4947 15.08838767 68831,6917.884,95.438,540.709,538.789,0.0
53004.0,STARLINK-4253,PAYLOAD,2023-10-04 18:57:37,15.08850246,0.0001304,53.215,115.5666,93.755,266.3591,0.00033107,4.986e-05,0.0,0 STARLINK-4253,1 53004U 22076U   23277.79002308  .00004986  00000-0  33107-3 0  9993,2 53004  53.2150 115.5666 0001304  93.7550 266.3591 15.08850246 69429,6917.849,95.437,540.616,538.812,0.0
53004.0,STARLINK-4253,PAYLOAD,2023-10-04 20:33:00,15.08854314,0.000131,53.215,115.2692,93.4665,266.6477,0.0004033,6.139e-05,0.0,0 STARLINK-4253,1 53004U 22076U   23277.85626142  .00006139  00000-0  40330-3 0  9996,2 53004  53.2150 115.2692 0001310  93.4665 266.6477 15.08854314 68960,6917.837,95.437,540.608,538.795,0.0
53004.0,STARLINK-4253,PAYLOAD,2023-10-05 06:05:19,15.08847083,0.0001328,53.2156,113.4846,85.9605,274.1539,0.00021939,3.206e-05,0.0,0 STARLINK-4253,1 53004U 22076U   23278.25370308  .00003206  00000-0  21939-3 0  9997,2 53004  53.2156 113.4846 0001328  85.9605 274.1539 15.08847083 69493,6917.859,95.437,540.642,538.805,0.0
